start=new Date('2022-05-12T00:00:00.000Z').valueOf();
sats=[{"OBJECT_TYPE":"PAYLOAD","PERIOD":"95.439","MEAN_MOTION_DOT":"0.00036829","TLE_LINE2":"2 50803  53.2166 323.9564 0001830  54.5962 270.4843 15.08812571 20666","CENTER_NAME":"EARTH","OBJECT_ID":"2022-001A","GP_ID":"203281133","APOAPSIS":"541.095","OBJECT_NAME":"STARLINK-3321","ELEMENT_SET_NO":"999","TLE_LINE1":"1 50803U 22001A   22131.91667824  .00036829  00000-0  23218-2 0  9999","INCLINATION":"53.2166","SITE":"AFETR","EPOCH":"2022-05-11T22:00:00.999936","ARG_OF_PERICENTER":"54.5962","BSTAR":"0.00232180000000","SEMIMAJOR_AXIS":"6917.964","COUNTRY_CODE":"US","FILE":"3440849","LAUNCH_DATE":"2022-01-06","RCS_SIZE":"LARGE","REV_AT_EPOCH":"2066","RA_OF_ASC_NODE":"323.9564","PERIAPSIS":"538.563","MEAN_ELEMENT_THEORY":"SGP4","MEAN_ANOMALY":"270.4843","MEAN_MOTION":"15.08812571","CLASSIFICATION_TYPE":"U","NORAD_CAT_ID":"50803","MEAN_MOTION_DDOT":"0.0000000000000","TIME_SYSTEM":"UTC","DECAY_DATE":null,"EPHEMERIS_TYPE":"0","ECCENTRICITY":"0.00018300","REF_FRAME":"TEME"},{"OBJECT_NAME":"STARLINK-3323","APOAPSIS":"540.950","GP_ID":"203281169","MEAN_MOTION_DOT":"0.00044839","TLE_LINE2":"2 50804  53.2133 313.9678 0001708  57.8602  82.2250 15.08832586 20778","OBJECT_ID":"2022-001B","CENTER_NAME":"EARTH","PERIOD":"95.438","OBJECT_TYPE":"PAYLOAD","LAUNCH_DATE":"2022-01-06","FILE":"3440851","SEMIMAJOR_AXIS":"6917.903","COUNTRY_CODE":"US","EPOCH":"2022-05-11T22:00:00.999936","ARG_OF_PERICENTER":"57.8602","BSTAR":"0.00281810000000","SITE":"AFETR","INCLINATION":"53.2133","TLE_LINE1":"1 50804U 22001B   22131.91667824  .00044839  00000-0  28181-2 0  9994","ELEMENT_SET_NO":"999","MEAN_ANOMALY":"82.2250","MEAN_MOTION":"15.08832586","NORAD_CAT_ID":"50804","CLASSIFICATION_TYPE":"U","PERIAPSIS":"538.586","MEAN_ELEMENT_THEORY":"SGP4","RA_OF_ASC_NODE":"313.9678","RCS_SIZE":"LARGE","REV_AT_EPOCH":"2077","REF_FRAME":"TEME","ECCENTRICITY":"0.00017080","DECAY_DATE":null,"EPHEMERIS_TYPE":"0","TIME_SYSTEM":"UTC","MEAN_MOTION_DDOT":"0.0000000000000"},{"ECCENTRICITY":"0.00018720","REF_FRAME":"TEME","EPHEMERIS_TYPE":"0","DECAY_DATE":null,"MEAN_MOTION_DDOT":"0.0000000000000","TIME_SYSTEM":"UTC","CLASSIFICATION_TYPE":"U","NORAD_CAT_ID":"50805","MEAN_MOTION":"15.08836892","MEAN_ANOMALY":"112.3482","PERIAPSIS":"538.460","MEAN_ELEMENT_THEORY":"SGP4","REV_AT_EPOCH":"2079","RCS_SIZE":"LARGE","RA_OF_ASC_NODE":"313.9687","COUNTRY_CODE":"US","SEMIMAJOR_AXIS":"6917.890","FILE":"3440864","LAUNCH_DATE":"2022-01-06","BSTAR":"0.00021457000000","EPOCH":"2022-05-11T22:00:00.999936","ARG_OF_PERICENTER":"47.7578","TLE_LINE1":"1 50805U 22001C   22131.91667824  .00003128  00000-0  21457-3 0  9991","INCLINATION":"53.2127","SITE":"AFETR","ELEMENT_SET_NO":"999","OBJECT_NAME":"STARLINK-3333","GP_ID":"203281373","APOAPSIS":"541.050","OBJECT_ID":"2022-001C","TLE_LINE2":"2 50805  53.2127 313.9687 0001872  47.7578 112.3482 15.08836892 20792","CENTER_NAME":"EARTH","MEAN_MOTION_DOT":"0.00003128","OBJECT_TYPE":"PAYLOAD","PERIOD":"95.438"},{"TLE_LINE2":"2 50806  53.2150 313.9708 0001712  45.0493 135.0392 15.08824940  1302","OBJECT_ID":"2022-001D","CENTER_NAME":"EARTH","MEAN_MOTION_DOT":"0.00034219","OBJECT_TYPE":"PAYLOAD","PERIOD":"95.439","OBJECT_NAME":"STARLINK-3335","GP_ID":"203310992","APOAPSIS":"540.976","INCLINATION":"53.2150","TLE_LINE1":"1 50806U 22001D   22131.91667824  .00034219  00000-0  21586-2 0  9999","SITE":"AFETR","ELEMENT_SET_NO":"999","COUNTRY_CODE":"US","SEMIMAJOR_AXIS":"6917.926","FILE":"3441154","LAUNCH_DATE":"2022-01-06","BSTAR":"0.00215860000000","EPOCH":"2022-05-11T22:00:00.999936","ARG_OF_PERICENTER":"45.0493","MEAN_ELEMENT_THEORY":"SGP4","PERIAPSIS":"538.607","REV_AT_EPOCH":"130","RCS_SIZE":"LARGE","RA_OF_ASC_NODE":"313.9708","CLASSIFICATION_TYPE":"U","NORAD_CAT_ID":"50806","MEAN_MOTION":"15.08824940","MEAN_ANOMALY":"135.0392","MEAN_MOTION_DDOT":"0.0000000000000","TIME_SYSTEM":"UTC","ECCENTRICITY":"0.00017120","REF_FRAME":"TEME","EPHEMERIS_TYPE":"0","DECAY_DATE":null},{"REF_FRAME":"TEME","ECCENTRICITY":"0.00019440","DECAY_DATE":null,"EPHEMERIS_TYPE":"0","TIME_SYSTEM":"UTC","MEAN_MOTION_DDOT":"0.0000000000000","MEAN_ANOMALY":"216.6629","MEAN_MOTION":"15.08811723","CLASSIFICATION_TYPE":"U","NORAD_CAT_ID":"50807","PERIAPSIS":"538.487","MEAN_ELEMENT_THEORY":"SGP4","RA_OF_ASC_NODE":"313.9683","RCS_SIZE":"LARGE","REV_AT_EPOCH":"2080","FILE":"3440865","LAUNCH_DATE":"2022-01-06","SEMIMAJOR_AXIS":"6917.967","COUNTRY_CODE":"US","ARG_OF_PERICENTER":"43.4301","EPOCH":"2022-05-11T22:00:00.999936","BSTAR":"0.00293310000000","SITE":"AFETR","INCLINATION":"53.2191","TLE_LINE1":"1 50807U 22001E   22131.91667824  .00046666  00000-0  29331-2 0  9995","ELEMENT_SET_NO":"999","OBJECT_NAME":"STARLINK-3353","APOAPSIS":"541.177","GP_ID":"203281383","MEAN_MOTION_DOT":"0.00046666","OBJECT_ID":"2022-001E","TLE_LINE2":"2 50807  53.2191 313.9683 0001944  43.4301 216.6629 15.08811723 20807","CENTER_NAME":"EARTH","PERIOD":"95.439","OBJECT_TYPE":"PAYLOAD"},{"MEAN_ELEMENT_THEORY":"SGP4","PERIAPSIS":"538.462","RCS_SIZE":"LARGE","REV_AT_EPOCH":"2077","RA_OF_ASC_NODE":"313.9706","MEAN_MOTION":"15.08823675","MEAN_ANOMALY":"181.7643","NORAD_CAT_ID":"50808","CLASSIFICATION_TYPE":"U","MEAN_MOTION_DDOT":"0.0000000000000","TIME_SYSTEM":"UTC","ECCENTRICITY":"0.00019270","REF_FRAME":"TEME","DECAY_DATE":null,"EPHEMERIS_TYPE":"0","MEAN_MOTION_DOT":"0.00043381","CENTER_NAME":"EARTH","TLE_LINE2":"2 50808  53.2162 313.9706 0001927  38.3272 181.7643 15.08823675 20776","OBJECT_ID":"2022-001F","OBJECT_TYPE":"PAYLOAD","PERIOD":"95.439","OBJECT_NAME":"STARLINK-3355","GP_ID":"203281433","APOAPSIS":"541.128","INCLINATION":"53.2162","TLE_LINE1":"1 50808U 22001F   22131.91667824  .00043381  00000-0  27283-2 0  9991","SITE":"AFETR","ELEMENT_SET_NO":"999","SEMIMAJOR_AXIS":"6917.930","COUNTRY_CODE":"US","FILE":"3440867","LAUNCH_DATE":"2022-01-06","EPOCH":"2022-05-11T22:00:00.999936","ARG_OF_PERICENTER":"38.3272","BSTAR":"0.00272830000000"},{"LAUNCH_DATE":"2022-01-06","FILE":"3440879","COUNTRY_CODE":"US","SEMIMAJOR_AXIS":"6917.974","BSTAR":"0.00239350000000","ARG_OF_PERICENTER":"47.5962","EPOCH":"2022-05-11T22:00:00.999936","SITE":"AFETR","INCLINATION":"53.2162","TLE_LINE1":"1 50809U 22001G   22131.91667824  .00037979  00000-0  23935-2 0  9998","ELEMENT_SET_NO":"999","OBJECT_NAME":"STARLINK-3232","APOAPSIS":"541.233","GP_ID":"203281452","CENTER_NAME":"EARTH","TLE_LINE2":"2 50809  53.2162 313.9702 0002015  47.5962 152.5055 15.08809442 20803","OBJECT_ID":"2022-001G","MEAN_MOTION_DOT":"0.00037979","PERIOD":"95.439","OBJECT_TYPE":"PAYLOAD","REF_FRAME":"TEME","ECCENTRICITY":"0.00020150","EPHEMERIS_TYPE":"0","DECAY_DATE":null,"TIME_SYSTEM":"UTC","MEAN_MOTION_DDOT":"0.0000000000000","CLASSIFICATION_TYPE":"U","NORAD_CAT_ID":"50809","MEAN_ANOMALY":"152.5055","MEAN_MOTION":"15.08809442","MEAN_ELEMENT_THEORY":"SGP4","PERIAPSIS":"538.445","RA_OF_ASC_NODE":"313.9702","REV_AT_EPOCH":"2080","RCS_SIZE":"LARGE"},{"NORAD_CAT_ID":"50810","CLASSIFICATION_TYPE":"U","MEAN_MOTION":"15.08824566","MEAN_ANOMALY":"195.4283","RA_OF_ASC_NODE":"313.9712","REV_AT_EPOCH":"130","RCS_SIZE":"LARGE","PERIAPSIS":"538.588","MEAN_ELEMENT_THEORY":"SGP4","EPHEMERIS_TYPE":"0","DECAY_DATE":null,"REF_FRAME":"TEME","ECCENTRICITY":"0.00017410","TIME_SYSTEM":"UTC","MEAN_MOTION_DDOT":"0.0000000000000","APOAPSIS":"540.997","GP_ID":"203310492","OBJECT_NAME":"STARLINK-3348","PERIOD":"95.439","OBJECT_TYPE":"PAYLOAD","CENTER_NAME":"EARTH","TLE_LINE2":"2 50810  53.2188 313.9712 0001741  44.6735 195.4283 15.08824566  1302","OBJECT_ID":"2022-001H","MEAN_MOTION_DOT":"0.00015787","BSTAR":"0.00100820000000","EPOCH":"2022-05-11T22:00:00.999936","ARG_OF_PERICENTER":"44.6735","LAUNCH_DATE":"2022-01-06","FILE":"3441154","COUNTRY_CODE":"US","SEMIMAJOR_AXIS":"6917.928","ELEMENT_SET_NO":"999","SITE":"AFETR","INCLINATION":"53.2188","TLE_LINE1":"1 50810U 22001H   22131.91667824  .00015787  00000-0  10082-2 0  9992"},{"EPOCH":"2022-05-11T22:00:00.999936","ARG_OF_PERICENTER":"36.1800","BSTAR":"0.00289170000000","SEMIMAJOR_AXIS":"6917.939","COUNTRY_CODE":"US","FILE":"3441154","LAUNCH_DATE":"2022-01-06","ELEMENT_SET_NO":"999","TLE_LINE1":"1 50811U 22001J   22131.91667824  .00046010  00000-0  28917-2 0  9992","INCLINATION":"53.2208","SITE":"AFETR","GP_ID":"203311242","APOAPSIS":"541.125","OBJECT_NAME":"STARLINK-3347","OBJECT_TYPE":"PAYLOAD","PERIOD":"95.439","MEAN_MOTION_DOT":"0.00046010","TLE_LINE2":"2 50811  53.2208 313.9582 0001910  36.1800 243.8964 15.08820962  1308","CENTER_NAME":"EARTH","OBJECT_ID":"2022-001J","DECAY_DATE":null,"EPHEMERIS_TYPE":"0","ECCENTRICITY":"0.00019100","REF_FRAME":"TEME","MEAN_MOTION_DDOT":"0.0000000000000","TIME_SYSTEM":"UTC","MEAN_ANOMALY":"243.8964","MEAN_MOTION":"15.08820962","CLASSIFICATION_TYPE":"U","NORAD_CAT_ID":"50811","RCS_SIZE":"LARGE","REV_AT_EPOCH":"130","RA_OF_ASC_NODE":"313.9582","PERIAPSIS":"538.482","MEAN_ELEMENT_THEORY":"SGP4"},{"EPHEMERIS_TYPE":"0","DECAY_DATE":null,"REF_FRAME":"TEME","ECCENTRICITY":"0.00016140","TIME_SYSTEM":"UTC","MEAN_MOTION_DDOT":"0.0000000000000","CLASSIFICATION_TYPE":"U","NORAD_CAT_ID":"50812","MEAN_MOTION":"15.08805914","MEAN_ANOMALY":"68.8360","RA_OF_ASC_NODE":"313.9697","REV_AT_EPOCH":"130","RCS_SIZE":"LARGE","PERIAPSIS":"538.733","MEAN_ELEMENT_THEORY":"SGP4","BSTAR":"0.00276950000000","EPOCH":"2022-05-11T22:00:00.999936","ARG_OF_PERICENTER":"46.0733","FILE":"3441154","LAUNCH_DATE":"2022-01-06","COUNTRY_CODE":"US","SEMIMAJOR_AXIS":"6917.985","ELEMENT_SET_NO":"999","SITE":"AFETR","TLE_LINE1":"1 50812U 22001K   22131.91667824  .00044023  00000-0  27695-2 0  9997","INCLINATION":"53.2123","APOAPSIS":"540.966","GP_ID":"203311493","OBJECT_NAME":"STARLINK-3338","PERIOD":"95.440","OBJECT_TYPE":"PAYLOAD","OBJECT_ID":"2022-001K","TLE_LINE2":"2 50812  53.2123 313.9697 0001614  46.0733  68.8360 15.08805914  1303","CENTER_NAME":"EARTH","MEAN_MOTION_DOT":"0.00044023"}];
